SENTINEL-6              
1 46984U 20086A   24090.14072252 -.00000043  00000+0  80281-4 0  9995
2 46984  66.0448  15.4488 0007824 271.3393  88.6726 12.80929332156828
